{
  "type": "FeatureCollection",
  "features": [
    {
      "type": "Feature",
      "properties": {
        "norad_id": 28890,
        "name": "BEIJING 1",
        "group": "dmc",
        "lat": -6.102109096935259,
        "lon": 104.74782256374475,
        "alt_km": 696.5566114266794,
        "timestamp": "2025-12-02T08:59:32.386219+00:00",
        "meta_object_name": "BEIJING 1",
        "meta_object_id": "2005-043A",
        "meta_epoch": "2025-12-02T05:44:18.304800",
        "meta_mean_motion": 14.63349369,
        "meta_eccentricity": 0.0014771,
        "meta_inclination": 98.2649,
        "meta_ra_of_asc_node": 103.7216,
        "meta_arg_of_pericenter": 173.3095,
        "meta_mean_anomaly": 186.8307,
        "meta_ephemeris_type": 0,
        "meta_classification_type": "U",
        "meta_norad_cat_id": 28890,
        "meta_element_set_no": 999,
        "meta_rev_at_epoch": 7184,
        "meta_bstar": 0.00010902,
        "meta_mean_motion_dot": 5.15e-06,
        "meta_mean_motion_ddot": 0,
        "tle_line1": "1 28890U 05043A   25336.23910075  .00000515  00000+0  10902-3 0  9990",
        "tle_line2": "2 28890  98.2649 103.7216 0014771 173.3095 186.8307 14.63349369 71846"
      },
      "geometry": {
        "type": "Point",
        "coordinates": [
          104.74782256374475,
          -6.102109096935259
        ]
      }
    },
    {
      "type": "Feature",
      "properties": {
        "norad_id": 33320,
        "name": "HUANJING 1A (HJ-1A)",
        "group": "dmc",
        "lat": -4.039043710758086,
        "lon": -34.3491452797742,
        "alt_km": 617.4575067858777,
        "timestamp": "2025-12-02T08:59:32.386243+00:00",
        "meta_object_name": "HUANJING 1A (HJ-1A)",
        "meta_object_id": "2008-041A",
        "meta_epoch": "2025-12-02T05:46:21.713376",
        "meta_mean_motion": 14.83339261,
        "meta_eccentricity": 0.002068,
        "meta_inclination": 97.6533,
        "meta_ra_of_asc_node": 324.9783,
        "meta_arg_of_pericenter": 66.8541,
        "meta_mean_anomaly": 293.485,
        "meta_ephemeris_type": 0,
        "meta_classification_type": "U",
        "meta_norad_cat_id": 33320,
        "meta_element_set_no": 999,
        "meta_rev_at_epoch": 92920,
        "meta_bstar": 0.00022129,
        "meta_mean_motion_dot": 1.769e-05,
        "meta_mean_motion_ddot": 0,
        "tle_line1": "1 33320U 08041A   25336.24052909  .00001769  00000+0  22129-3 0  9995",
        "tle_line2": "2 33320  97.6533 324.9783 0020680  66.8541 293.4850 14.83339261929201"
      },
      "geometry": {
        "type": "Point",
        "coordinates": [
          -34.3491452797742,
          -4.039043710758086
        ]
      }
    },
    {
      "type": "Feature",
      "properties": {
        "norad_id": 33321,
        "name": "HUANJING 1B (HJ-1B)",
        "group": "dmc",
        "lat": -58.13311559575423,
        "lon": 136.36172318021056,
        "alt_km": 644.938669577251,
        "timestamp": "2025-12-02T08:59:32.386274+00:00",
        "meta_object_name": "HUANJING 1B (HJ-1B)",
        "meta_object_id": "2008-041B",
        "meta_epoch": "2025-12-02T04:40:56.272800",
        "meta_mean_motion": 14.82776334,
        "meta_eccentricity": 0.0038134,
        "meta_inclination": 97.6395,
        "meta_ra_of_asc_node": 328.6592,
        "meta_arg_of_pericenter": 109.0893,
        "meta_mean_anomaly": 251.4457,
        "meta_ephemeris_type": 0,
        "meta_classification_type": "U",
        "meta_norad_cat_id": 33321,
        "meta_element_set_no": 999,
        "meta_rev_at_epoch": 92921,
        "meta_bstar": 0.00018004,
        "meta_mean_motion_dot": 1.422e-05,
        "meta_mean_motion_ddot": 0,
        "tle_line1": "1 33321U 08041B   25336.19509575  .00001422  00000+0  18004-3 0  9999",
        "tle_line2": "2 33321  97.6395 328.6592 0038134 109.0893 251.4457 14.82776334929213"
      },
      "geometry": {
        "type": "Point",
        "coordinates": [
          136.36172318021056,
          -58.13311559575423
        ]
      }
    },
    {
      "type": "Feature",
      "properties": {
        "norad_id": 33446,
        "name": "YAOGAN-4",
        "group": "dmc",
        "lat": 24.288102012893994,
        "lon": 90.17673774699543,
        "alt_km": 629.838064334991,
        "timestamp": "2025-12-02T08:59:32.386287+00:00",
        "meta_object_name": "YAOGAN-4",
        "meta_object_id": "2008-061A",
        "meta_epoch": "2025-12-02T01:48:54.750816",
        "meta_mean_motion": 14.82626572,
        "meta_eccentricity": 0.0014513,
        "meta_inclination": 97.9167,
        "meta_ra_of_asc_node": 266.2805,
        "meta_arg_of_pericenter": 358.8966,
        "meta_mean_anomaly": 1.2213,
        "meta_ephemeris_type": 0,
        "meta_classification_type": "U",
        "meta_norad_cat_id": 33446,
        "meta_element_set_no": 999,
        "meta_rev_at_epoch": 91645,
        "meta_bstar": 0.00023667,
        "meta_mean_motion_dot": 1.856e-05,
        "meta_mean_motion_ddot": 0,
        "tle_line1": "1 33446U 08061A   25336.07563369  .00001856  00000+0  23667-3 0  9999",
        "tle_line2": "2 33446  97.9167 266.2805 0014513 358.8966   1.2213 14.82626572916456"
      },
      "geometry": {
        "type": "Point",
        "coordinates": [
          90.17673774699543,
          24.288102012893994
        ]
      }
    },
    {
      "type": "Feature",
      "properties": {
        "norad_id": 35681,
        "name": "DEIMOS-1",
        "group": "dmc",
        "lat": -32.61231476787903,
        "lon": -47.514593493392056,
        "alt_km": 652.3099185551864,
        "timestamp": "2025-12-02T08:59:32.386299+00:00",
        "meta_object_name": "DEIMOS-1",
        "meta_object_id": "2009-041A",
        "meta_epoch": "2025-12-02T04:46:26.857344",
        "meta_mean_motion": 14.74925681,
        "meta_eccentricity": 0.0002666,
        "meta_inclination": 97.7145,
        "meta_ra_of_asc_node": 137.2935,
        "meta_arg_of_pericenter": 98.7938,
        "meta_mean_anomaly": 261.3574,
        "meta_ephemeris_type": 0,
        "meta_classification_type": "U",
        "meta_norad_cat_id": 35681,
        "meta_element_set_no": 999,
        "meta_rev_at_epoch": 87784,
        "meta_bstar": 0.00013823,
        "meta_mean_motion_dot": 8.81e-06,
        "meta_mean_motion_ddot": 0,
        "tle_line1": "1 35681U 09041A   25336.19892196  .00000881  00000+0  13823-3 0  9997",
        "tle_line2": "2 35681  97.7145 137.2935 0002666  98.7938 261.3574 14.74925681877841"
      },
      "geometry": {
        "type": "Point",
        "coordinates": [
          -47.514593493392056,
          -32.61231476787903
        ]
      }
    },
    {
      "type": "Feature",
      "properties": {
        "norad_id": 35683,
        "name": "UK-DMC 2",
        "group": "dmc",
        "lat": -22.928895257330208,
        "lon": -71.77758240187815,
        "alt_km": 648.9203875948688,
        "timestamp": "2025-12-02T08:59:32.386311+00:00",
        "meta_object_name": "UK-DMC 2",
        "meta_object_id": "2009-041C",
        "meta_epoch": "2025-12-02T04:49:12.622656",
        "meta_mean_motion": 14.75582936,
        "meta_eccentricity": 0.0001269,
        "meta_inclination": 97.8561,
        "meta_ra_of_asc_node": 111.4019,
        "meta_arg_of_pericenter": 103.0172,
        "meta_mean_anomaly": 257.1179,
        "meta_ephemeris_type": 0,
        "meta_classification_type": "U",
        "meta_norad_cat_id": 35683,
        "meta_element_set_no": 999,
        "meta_rev_at_epoch": 87751,
        "meta_bstar": 0.00019543,
        "meta_mean_motion_dot": 1.283e-05,
        "meta_mean_motion_ddot": 0,
        "tle_line1": "1 35683U 09041C   25336.20084054  .00001283  00000+0  19543-3 0  9999",
        "tle_line2": "2 35683  97.8561 111.4019 0001269 103.0172 257.1179 14.75582936877512"
      },
      "geometry": {
        "type": "Point",
        "coordinates": [
          -71.77758240187815,
          -22.928895257330208
        ]
      }
    },
    {
      "type": "Feature",
      "properties": {
        "norad_id": 40715,
        "name": "DMC3-FM1",
        "group": "dmc",
        "lat": -65.03002267191431,
        "lon": 7.1209403211335065,
        "alt_km": 620.9380337248595,
        "timestamp": "2025-12-02T08:59:32.386321+00:00",
        "meta_object_name": "DMC3-FM1",
        "meta_object_id": "2015-032A",
        "meta_epoch": "2025-12-02T04:39:14.135040",
        "meta_mean_motion": 14.8540967,
        "meta_eccentricity": 0.0005429,
        "meta_inclination": 97.6706,
        "meta_ra_of_asc_node": 203.77,
        "meta_arg_of_pericenter": 358.4244,
        "meta_mean_anomaly": 1.6953,
        "meta_ephemeris_type": 0,
        "meta_classification_type": "U",
        "meta_norad_cat_id": 40715,
        "meta_element_set_no": 999,
        "meta_rev_at_epoch": 56066,
        "meta_bstar": 0.00011941,
        "meta_mean_motion_dot": 9.77e-06,
        "meta_mean_motion_ddot": 0,
        "tle_line1": "1 40715U 15032A   25336.19391360  .00000977  00000+0  11941-3 0  9990",
        "tle_line2": "2 40715  97.6706 203.7700 0005429 358.4244   1.6953 14.85409670560664"
      },
      "geometry": {
        "type": "Point",
        "coordinates": [
          7.1209403211335065,
          -65.03002267191431
        ]
      }
    },
    {
      "type": "Feature",
      "properties": {
        "norad_id": 40716,
        "name": "DMC3-FM2",
        "group": "dmc",
        "lat": 53.287068619904076,
        "lon": 35.799912675743364,
        "alt_km": 609.6931146218303,
        "timestamp": "2025-12-02T08:59:32.386332+00:00",
        "meta_object_name": "DMC3-FM2",
        "meta_object_id": "2015-032B",
        "meta_epoch": "2025-12-02T05:11:38.836608",
        "meta_mean_motion": 14.85410942,
        "meta_eccentricity": 0.0006076,
        "meta_inclination": 97.6757,
        "meta_ra_of_asc_node": 205.2281,
        "meta_arg_of_pericenter": 2.3547,
        "meta_mean_anomaly": 357.7696,
        "meta_ephemeris_type": 0,
        "meta_classification_type": "U",
        "meta_norad_cat_id": 40716,
        "meta_element_set_no": 999,
        "meta_rev_at_epoch": 56066,
        "meta_bstar": 0.00012575,
        "meta_mean_motion_dot": 1.032e-05,
        "meta_mean_motion_ddot": 0,
        "tle_line1": "1 40716U 15032B   25336.21642172  .00001032  00000+0  12575-3 0  9991",
        "tle_line2": "2 40716  97.6757 205.2281 0006076   2.3547 357.7696 14.85410942560665"
      },
      "geometry": {
        "type": "Point",
        "coordinates": [
          35.799912675743364,
          53.287068619904076
        ]
      }
    },
    {
      "type": "Feature",
      "properties": {
        "norad_id": 40717,
        "name": "DMC3-FM3",
        "group": "dmc",
        "lat": 10.448082569819974,
        "lon": -154.41923214906086,
        "alt_km": 610.1135523274124,
        "timestamp": "2025-12-02T08:59:32.386342+00:00",
        "meta_object_name": "DMC3-FM3",
        "meta_object_id": "2015-032C",
        "meta_epoch": "2025-12-02T04:05:41.662176",
        "meta_mean_motion": 14.85405195,
        "meta_eccentricity": 0.0005436,
        "meta_inclination": 97.6812,
        "meta_ra_of_asc_node": 206.81,
        "meta_arg_of_pericenter": 4.6223,
        "meta_mean_anomaly": 355.5042,
        "meta_ephemeris_type": 0,
        "meta_classification_type": "U",
        "meta_norad_cat_id": 40717,
        "meta_element_set_no": 999,
        "meta_rev_at_epoch": 56066,
        "meta_bstar": 0.00010278,
        "meta_mean_motion_dot": 8.34e-06,
        "meta_mean_motion_ddot": 0,
        "tle_line1": "1 40717U 15032C   25336.17062109  .00000834  00000+0  10278-3 0  9990",
        "tle_line2": "2 40717  97.6812 206.8100 0005436   4.6223 355.5042 14.85405195560665"
      },
      "geometry": {
        "type": "Point",
        "coordinates": [
          -154.41923214906086,
          10.448082569819974
        ]
      }
    }
  ]
}